2015/11/29 06:15
TAF TAF DBBB 290500Z 2906/3012 22010KT 9999 SCT013 
      TEMPO 2906/2909 30002KT 3000 BR BKN010 PROB30 
      TEMPO 2912/2917 TS SCT013 FEW023CB 
      TEMPO 3004/3009 30002KT 9999 BR BKN010
