2015/11/29 12:21
TAF TAF DGAA 290900Z 2912/3018 18010KT 9999 FEW016 PROB30 
      TEMPO 2914/2918 TS SCT015 FEW030CB 
      BECMG 3005/3002 27005KT CAVOK 
      TEMPO 3005/3009 3000 BR SCT010
