2015/11/29 06:00
TAF DGTK 290500Z 2906/3012 23008KT 9999 FEW013 SCT016 
      TEMPO 2906/2908 00000KT 6000 NSW SCT010 
      TEMPO 2914/2918 TS FEW030CB 
      BECMG 2921/2924 00000KT FEW010
