2015/11/29 12:00
TAF FNBG 291100Z 2912/2924 32010KT 9999 FEW018 SCT023 
      TEMPO 2914/2918 26012KT CAVOK 
      BECMG 2919/2921 VRB03KT
