2015/11/27 18:51
TAF GLRB 271600Z 2718/2824 29012KT 9000 SCT020 FM 272000 34010KT 8000 BKN015 
      BECMG 2801/2803 5000 HZ BKN012
