2015/11/29 12:55
TAF GVAC 291100Z 2912/3018 08010KT 9999 SCT015
