2015/11/29 12:00
TAF GVBA 291100Z 2912/3018 08008KT 9999 FEW018 
      TEMPO 2923/3008 VRB03KT
