2015/11/29 09:57
TAF 
      AMD KJFK 290850Z 2909/3012 36011KT P6SM FEW020 SCT045 BKN100 
     FM291000 36011KT P6SM VCSH FEW020 BKN045 
     FM291300 01010KT P6SM SCT100 BKN250 
     FM291700 36010KT P6SM FEW250 
     FM300200 02010KT P6SM SKC
