2015/11/29 06:00
TAF RPLL 290500Z 2906/3012 08006KT 9999 FEW025 BKN300 TX33/2906Z TN26/2922Z 
      TEMPO 2906/2912 10010KT 8000 -SHRA SCT025 BKN100 
      TEMPO 2912/2918 VRB03KT SCT025 BKN100
