2015/11/29 10:00
DBBB 291000Z 21008KT 180V240 9999 SCT013 31/28 Q1014 NOSIG
