2015/11/15 12:30
GLRB 151230Z 220008KT 9999 BKN025 31/25 Q1012 NOSIG
