2015/11/29 12:00
HEAR 291200Z 35004KT 9999 SCT020 25/15 Q1018 NOSIG
