2015/11/29 09:51
KJFK 290951Z 34012KT 10SM FEW025 BKN100 OVC160 05/00 A3023 RMK AO2 SLP236 T00500000 $
