2015/11/29 10:00
RPLL 291000Z 10005KT 050V140 9999 FEW025 SCT100 24/22 Q1014 NOSIG RMK A2994
