2015/11/29 14:00
SEGS 291400Z 15012KT 9999 -DZ FEW016 BKN033 26/23 Q1010 A2985
