2015/11/29 10:00
VQPR 291000Z 17015KT 9999 FEW040 FEW150 16/02 Q1023 NOSIG
